CSS (TIANHE)            
1 48274U 21035A   23233.33406005  .00028691  00000+0  33435-3 0  9996
2 48274  41.4733 119.8809 0009566 206.1611 153.8746 15.60973634132013
